ONEWEB-0560             
1 55145U 23004F   25065.52475459  .00000029  00000+0  40607-4 0  9999
2 55145  87.9054  68.4785 0002180  83.4473 276.6907 13.18685584108075
ONEWEB-0565             
1 55146U 23004G   25065.74605066  .00000087  00000+0  18865-3 0  9997
2 55146  87.9049  68.4995 0001822  71.2960 288.8370 13.18684994108096
ONEWEB-0567             
1 55147U 23004H   25065.73973157  .00000054  00000+0  10295-3 0  9999
2 55147  87.9047  68.4560 0002064  76.2934 283.8428 13.18684844108091
ONEWEB-0569             
1 55148U 23004J   25066.49616787  .00000241  00000+0  62631-3 0  9996
2 55148  87.8905  52.9620 0002630  66.9472 293.1934 13.13375387108912
ONEWEB-0570             
1 55149U 23004K   25066.40996786  .00000012  00000+0 -11821-5 0  9992
2 55149  87.9051  68.3241 0001276  79.2307 280.8969 13.18685201108178
ONEWEB-0571             
1 55150U 23004L   25066.47953222  .00000060  00000+0  11943-3 0  9994
2 55150  87.9053  68.3187 0002086  56.9135 303.2197 13.18685197108191
ONEWEB-0572             
1 55151U 23004M   25066.13221476 -.00000333  00000+0 -89068-3 0  9995
2 55151  87.9016  98.9102 0001761  88.6267 271.5066 13.17648996105974
ONEWEB-0573             
1 55152U 23004N   25066.39732901  .00000039  00000+0  67291-4 0  9990
2 55152  87.9049  68.3433 0001695  59.1259 301.0040 13.18684406108172
